ONEWEB-0336
1 49202U 21083S   26119.27647709  .00000254  00000+0  65990-3 0  9994
2 49202  87.8958 329.9733 0001586  99.4029 260.7279 13.13470183224498
